[{"OBJECT_NAME":"COSMOS 2251 DEB","OBJECT_ID":"1993-036BPT","EPOCH":"2026-03-28T13:54:29.840256","MEAN_MOTION":15.03228737,"ECCENTRICITY":0.0076477,"INCLINATION":73.999,"RA_OF_ASC_NODE":54.8801,"ARG_OF_PERICENTER":146.4448,"MEAN_ANOMALY":214.162,"EPHEMERIS_TYPE":0,"CLASSIFICATION_TYPE":"U","NORAD_CAT_ID":37968,"ELEMENT_SET_NO":999,"REV_AT_EPOCH":61808,"BSTAR":0.00074655818,"MEAN_MOTION_DOT":0.0001075,"MEAN_MOTION_DDOT":0},{"OBJECT_NAME":"COSMOS 2251 DEB","OBJECT_ID":"1993-036BPW","EPOCH":"2026-03-28T00:22:01.321248","MEAN_MOTION":14.501519,"ECCENTRICITY":0.00669588,"INCLINATION":73.992,"RA_OF_ASC_NODE":203.6927,"ARG_OF_PERICENTER":314.9215,"MEAN_ANOMALY":44.6523,"EPHEMERIS_TYPE":0,"CLASSIFICATION_TYPE":"U","NORAD_CAT_ID":37971,"ELEMENT_SET_NO":999,"REV_AT_EPOCH":62203,"BSTAR":0.0017767332,"MEAN_MOTION_DOT":7.082e-5,"MEAN_MOTION_DDOT":0},{"OBJECT_NAME":"COSMOS 2251 DEB","OBJECT_ID":"1993-036BQA","EPOCH":"2026-03-28T08:40:53.114304","MEAN_MOTION":14.81874046,"ECCENTRICITY":0.00764832,"INCLINATION":73.9983,"RA_OF_ASC_NODE":115.8508,"ARG_OF_PERICENTER":78.5043,"MEAN_ANOMALY":282.471,"EPHEMERIS_TYPE":0,"CLASSIFICATION_TYPE":"U","NORAD_CAT_ID":37975,"ELEMENT_SET_NO":999,"REV_AT_EPOCH":71307,"BSTAR":0.0023608468,"MEAN_MOTION_DOT":0.00019672,"MEAN_MOTION_DDOT":0},{"OBJECT_NAME":"COSMOS 2251 DEB","OBJECT_ID":"1993-036BQL","EPOCH":"2026-03-25T08:23:28.613472","MEAN_MOTION":14.35517173,"ECCENTRICITY":0.0021508,"INCLINATION":74.0231,"RA_OF_ASC_NODE":77.3959,"ARG_OF_PERICENTER":181.6249,"MEAN_ANOMALY":178.4838,"EPHEMERIS_TYPE":0,"CLASSIFICATION_TYPE":"U","NORAD_CAT_ID":37985,"ELEMENT_SET_NO":999,"REV_AT_EPOCH":66389,"BSTAR":4.1017923e-5,"MEAN_MOTION_DOT":9.2e-7,"MEAN_MOTION_DDOT":0},{"OBJECT_NAME":"COSMOS 2251 DEB","OBJECT_ID":"1993-036BQP","EPOCH":"2026-03-27T15:55:49.314144","MEAN_MOTION":14.7038135,"ECCENTRICITY":0.00626581,"INCLINATION":74.0628,"RA_OF_ASC_NODE":181.0093,"ARG_OF_PERICENTER":194.3882,"MEAN_ANOMALY":165.5509,"EPHEMERIS_TYPE":0,"CLASSIFICATION_TYPE":"U","NORAD_CAT_ID":37988,"ELEMENT_SET_NO":999,"REV_AT_EPOCH":24937,"BSTAR":0.00082531427,"MEAN_MOTION_DOT":5.117e-5,"MEAN_MOTION_DDOT":0},{"OBJECT_NAME":"COSMOS 2251 DEB","OBJECT_ID":"1993-036BQU","EPOCH":"2026-03-27T22:29:41.940672","MEAN_MOTION":14.61383831,"ECCENTRICITY":0.0019266,"INCLINATION":74.0236,"RA_OF_ASC_NODE":325.7847,"ARG_OF_PERICENTER":29.8612,"MEAN_ANOMALY":330.3649,"EPHEMERIS_TYPE":0,"CLASSIFICATION_TYPE":"U","NORAD_CAT_ID":37993,"ELEMENT_SET_NO":999,"REV_AT_EPOCH":66853,"BSTAR":0.00087427,"MEAN_MOTION_DOT":4.308e-5,"MEAN_MOTION_DDOT":0},{"OBJECT_NAME":"COSMOS 2251 DEB","OBJECT_ID":"1993-036BQV","EPOCH":"2026-03-28T09:47:08.873376","MEAN_MOTION":14.39870582,"ECCENTRICITY":0.00220775,"INCLINATION":74.0338,"RA_OF_ASC_NODE":80.5207,"ARG_OF_PERICENTER":142.1892,"MEAN_ANOMALY":218.0819,"EPHEMERIS_TYPE":0,"CLASSIFICATION_TYPE":"U","NORAD_CAT_ID":37994,"ELEMENT_SET_NO":999,"REV_AT_EPOCH":78585,"BSTAR":0.00030837232,"MEAN_MOTION_DOT":9.45e-6,"MEAN_MOTION_DDOT":0},{"OBJECT_NAME":"COSMOS 2251 DEB","OBJECT_ID":"1993-036BQZ","EPOCH":"2026-03-26T04:36:03.718080","MEAN_MOTION":14.45933524,"ECCENTRICITY":0.00174062,"INCLINATION":74.0376,"RA_OF_ASC_NODE":42.1799,"ARG_OF_PERICENTER":98.1937,"MEAN_ANOMALY":262.1197,"EPHEMERIS_TYPE":0,"CLASSIFICATION_TYPE":"U","NORAD_CAT_ID":37998,"ELEMENT_SET_NO":999,"REV_AT_EPOCH":65782,"BSTAR":0.00051099848,"MEAN_MOTION_DOT":1.795e-5,"MEAN_MOTION_DDOT":0},{"OBJECT_NAME":"COSMOS 2251 DEB","OBJECT_ID":"1993-036BRC","EPOCH":"2026-03-27T13:04:41.208096","MEAN_MOTION":14.80352231,"ECCENTRICITY":0.0062378,"INCLINATION":73.999,"RA_OF_ASC_NODE":285.5056,"ARG_OF_PERICENTER":48.9656,"MEAN_ANOMALY":342.4383,"EPHEMERIS_TYPE":0,"CLASSIFICATION_TYPE":"U","NORAD_CAT_ID":38001,"ELEMENT_SET_NO":999,"REV_AT_EPOCH":76258,"BSTAR":0.00051568,"MEAN_MOTION_DOT":4.033e-5,"MEAN_MOTION_DDOT":0},{"OBJECT_NAME":"COSMOS 2251 DEB","OBJECT_ID":"1993-036BRL","EPOCH":"2026-03-27T19:43:27.543648","MEAN_MOTION":13.63052818,"ECCENTRICITY":0.03472747,"INCLINATION":73.9513,"RA_OF_ASC_NODE":93.7787,"ARG_OF_PERICENTER":50.872,"MEAN_ANOMALY":12.4938,"EPHEMERIS_TYPE":0,"CLASSIFICATION_TYPE":"U","NORAD_CAT_ID":38054,"ELEMENT_SET_NO":999,"REV_AT_EPOCH":68611,"BSTAR":0.0027675041,"MEAN_MOTION_DOT":3.237e-5,"MEAN_MOTION_DDOT":0},{"OBJECT_NAME":"COSMOS 2251 DEB","OBJECT_ID":"1993-036BRM","EPOCH":"2026-03-28T01:04:03.122112","MEAN_MOTION":14.78438601,"ECCENTRICITY":0.00630763,"INCLINATION":74.0116,"RA_OF_ASC_NODE":359.717,"ARG_OF_PERICENTER":103.2199,"MEAN_ANOMALY":272.1453,"EPHEMERIS_TYPE":0,"CLASSIFICATION_TYPE":"U","NORAD_CAT_ID":38055,"ELEMENT_SET_NO":999,"REV_AT_EPOCH":62238,"BSTAR":0.00074928471,"MEAN_MOTION_DOT":5.618e-5,"MEAN_MOTION_DDOT":0},{"OBJECT_NAME":"COSMOS 2251 DEB","OBJECT_ID":"1993-036BRN","EPOCH":"2026-03-27T00:35:05.733888","MEAN_MOTION":13.89644521,"ECCENTRICITY":0.02726759,"INCLINATION":73.9199,"RA_OF_ASC_NODE":97.4684,"ARG_OF_PERICENTER":63.8841,"MEAN_ANOMALY":299.0068,"EPHEMERIS_TYPE":0,"CLASSIFICATION_TYPE":"U","NORAD_CAT_ID":38056,"ELEMENT_SET_NO":999,"REV_AT_EPOCH":65722,"BSTAR":0.0025797585,"MEAN_MOTION_DOT":4.242e-5,"MEAN_MOTION_DDOT":0},{"OBJECT_NAME":"COSMOS 2251 DEB","OBJECT_ID":"1993-036BRS","EPOCH":"2026-03-28T08:36:03.696768","MEAN_MOTION":14.6447519,"ECCENTRICITY":0.00588393,"INCLINATION":74.0388,"RA_OF_ASC_NODE":92.4799,"ARG_OF_PERICENTER":174.8806,"MEAN_ANOMALY":185.2978,"EPHEMERIS_TYPE":0,"CLASSIFICATION_TYPE":"U","NORAD_CAT_ID":38060,"ELEMENT_SET_NO":999,"REV_AT_EPOCH":73510,"BSTAR":0.00035788663,"MEAN_MOTION_DOT":1.912e-5,"MEAN_MOTION_DDOT":0},{"OBJECT_NAME":"COSMOS 2251 DEB","OBJECT_ID":"1993-036BRU","EPOCH":"2026-03-28T08:10:17.154912","MEAN_MOTION":15.00788922,"ECCENTRICITY":0.0016336,"INCLINATION":74.005,"RA_OF_ASC_NODE":76.1761,"ARG_OF_PERICENTER":204.6989,"MEAN_ANOMALY":224.2783,"EPHEMERIS_TYPE":0,"CLASSIFICATION_TYPE":"U","NORAD_CAT_ID":38062,"ELEMENT_SET_NO":999,"REV_AT_EPOCH":64611,"BSTAR":0.0022519137,"MEAN_MOTION_DOT":0.00028753,"MEAN_MOTION_DDOT":0},{"OBJECT_NAME":"COSMOS 2251 DEB","OBJECT_ID":"1993-036BRW","EPOCH":"2026-03-27T22:57:37.863072","MEAN_MOTION":14.57147435,"ECCENTRICITY":0.0045764,"INCLINATION":74.0214,"RA_OF_ASC_NODE":284.2281,"ARG_OF_PERICENTER":16.9238,"MEAN_ANOMALY":343.344,"EPHEMERIS_TYPE":0,"CLASSIFICATION_TYPE":"U","NORAD_CAT_ID":38064,"ELEMENT_SET_NO":999,"REV_AT_EPOCH":73397,"BSTAR":0.00059578,"MEAN_MOTION_DOT":2.697e-5,"MEAN_MOTION_DDOT":0},{"OBJECT_NAME":"COSMOS 2251 DEB","OBJECT_ID":"1993-036BRZ","EPOCH":"2026-03-26T22:51:25.015104","MEAN_MOTION":14.61513692,"ECCENTRICITY":0.0070652,"INCLINATION":74.0177,"RA_OF_ASC_NODE":74.9766,"ARG_OF_PERICENTER":198.6194,"MEAN_ANOMALY":191.1142,"EPHEMERIS_TYPE":0,"CLASSIFICATION_TYPE":"U","NORAD_CAT_ID":38067,"ELEMENT_SET_NO":999,"REV_AT_EPOCH":64078,"BSTAR":0.00024996,"MEAN_MOTION_DOT":1.252e-5,"MEAN_MOTION_DDOT":0}]
