COSMOS 2251 DEB         
1 37968U 93036BPT 26087.57951204  .00010750  00000+0  74656-3 0  9993
2 37968  73.9990  54.8801 0076477 146.4448 214.1620 15.03228737618087
COSMOS 2251 DEB         
1 37971U 93036BPW 26087.01529307  .00007082  00000+0  17767-2 0  9994
2 37971  73.9920 203.6927 0066958 314.9215  44.6523 14.50151900622030
COSMOS 2251 DEB         
1 37975U 93036BQA 26087.36172586  .00019672  00000+0  23608-2 0  9998
2 37975  73.9983 115.8508 0076483  78.5043 282.4710 14.81874046713070
COSMOS 2251 DEB         
1 37985U 93036BQL 26084.34963673  .00000092  00000+0  41018-4 0  9992
2 37985  74.0231  77.3959 0021508 181.6249 178.4838 14.35517173663896
COSMOS 2251 DEB         
1 37988U 93036BQP 26086.66376521  .00005117  00000+0  82531-3 0  9999
2 37988  74.0628 181.0093 0062658 194.3882 165.5509 14.70381350249376
COSMOS 2251 DEB         
1 37993U 93036BQU 26086.93729098  .00004308  00000+0  87427-3 0  9996
2 37993  74.0236 325.7847 0019266  29.8612 330.3649 14.61383831668537
COSMOS 2251 DEB         
1 37994U 93036BQV 26087.40774159  .00000945  00000+0  30837-3 0  9994
2 37994  74.0338  80.5207 0022077 142.1892 218.0819 14.39870582785855
COSMOS 2251 DEB         
1 37998U 93036BQZ 26085.19170970  .00001795  00000+0  51100-3 0  9993
2 37998  74.0376  42.1799 0017406  98.1937 262.1197 14.45933524657828
COSMOS 2251 DEB         
1 38001U 93036BRC 26086.54492139  .00004033  00000+0  51568-3 0  9999
2 38001  73.9990 285.5056 0062378  48.9656 342.4383 14.80352231762580
COSMOS 2251 DEB         
1 38054U 93036BRL 26086.82184657  .00003237  00000+0  27675-2 0  9997
2 38054  73.9513  93.7787 0347274  50.8720  12.4938 13.63052818686116
COSMOS 2251 DEB         
1 38055U 93036BRM 26087.04448058  .00005618  00000+0  74928-3 0  9990
2 38055  74.0116 359.7170 0063076 103.2199 272.1453 14.78438601622388
COSMOS 2251 DEB         
1 38056U 93036BRN 26086.02437192  .00004242  00000+0  25798-2 0  9997
2 38056  73.9199  97.4684 0272675  63.8841 299.0068 13.89644521657228
COSMOS 2251 DEB         
1 38060U 93036BRS 26087.35837612  .00001912  00000+0  35789-3 0  9993
2 38060  74.0388  92.4799 0058839 174.8806 185.2978 14.64475190735103
COSMOS 2251 DEB         
1 38062U 93036BRU 26087.34047633  .00028753  00000+0  22519-2 0  9998
2 38062  74.0050  76.1761 0016336 204.6989 224.2783 15.00788922646110
COSMOS 2251 DEB         
1 38064U 93036BRW 26086.95668823  .00002697  00000+0  59578-3 0  9991
2 38064  74.0214 284.2281 0045764  16.9238 343.3440 14.57147435733974
COSMOS 2251 DEB         
1 38067U 93036BRZ 26085.95237286  .00001252  00000+0  24996-3 0  9990
2 38067  74.0177  74.9766 0070652 198.6194 191.1142 14.61513692640781
